{
  "type": "FeatureCollection",
  "features": [
    {
      "type": "Feature",
      "properties": {
        "norad_id": 38833,
        "name": "GPS BIIF-3  (PRN 24)",
        "group": "gps-ops",
        "lat": 46.98240375585417,
        "lon": -156.85900521830453,
        "alt_km": 19709.400047073425,
        "timestamp": "2025-12-23T09:49:07.341860+00:00",
        "meta_object_name": "GPS BIIF-3  (PRN 24)",
        "meta_object_id": "2012-053A",
        "meta_epoch": "2025-12-22T07:46:34.286880",
        "meta_mean_motion": 2.0056507,
        "meta_eccentricity": 0.0176029,
        "meta_inclination": 53.5595,
        "meta_ra_of_asc_node": 150.8462,
        "meta_arg_of_pericenter": 64.1364,
        "meta_mean_anomaly": 297.6424,
        "meta_ephemeris_type": 0,
        "meta_classification_type": "U",
        "meta_norad_cat_id": 38833,
        "meta_element_set_no": 999,
        "meta_rev_at_epoch": 9589,
        "meta_bstar": 0,
        "meta_mean_motion_dot": 6.6e-07,
        "meta_mean_motion_ddot": 0,
        "tle_line1": "1 38833U 12053A   25356.32400795  .00000066  00000+0  00000+0 0  9997",
        "tle_line2": "2 38833  53.5595 150.8462 0176029  64.1364 297.6424  2.00565070 95894"
      },
      "geometry": {
        "type": "Point",
        "coordinates": [
          -156.85900521830453,
          46.98240375585417
        ]
      }
    },
    {
      "type": "Feature",
      "properties": {
        "norad_id": 39166,
        "name": "GPS BIIF-4  (PRN 27)",
        "group": "gps-ops",
        "lat": 12.780456039590321,
        "lon": 86.87450102502345,
        "alt_km": 20335.017256067502,
        "timestamp": "2025-12-23T09:49:07.341871+00:00",
        "meta_object_name": "GPS BIIF-4  (PRN 27)",
        "meta_object_id": "2013-023A",
        "meta_epoch": "2025-12-22T04:30:56.781216",
        "meta_mean_motion": 2.00564649,
        "meta_eccentricity": 0.01384833,
        "meta_inclination": 54.6439,
        "meta_ra_of_asc_node": 276.1841,
        "meta_arg_of_pericenter": 48.7288,
        "meta_mean_anomaly": 312.4984,
        "meta_ephemeris_type": 0,
        "meta_classification_type": "U",
        "meta_norad_cat_id": 39166,
        "meta_element_set_no": 999,
        "meta_rev_at_epoch": 9233,
        "meta_bstar": 0,
        "meta_mean_motion_dot": -1.5e-07,
        "meta_mean_motion_ddot": 0,
        "tle_line1": "1 39166U 13023A   25356.18815719 -.00000015  00000+0  00000+0 0  9990",
        "tle_line2": "2 39166  54.6439 276.1841 0138483  48.7288 312.4984  2.00564649 92335"
      },
      "geometry": {
        "type": "Point",
        "coordinates": [
          86.87450102502345,
          12.780456039590321
        ]
      }
    },
    {
      "type": "Feature",
      "properties": {
        "norad_id": 39533,
        "name": "GPS BIIF-5  (PRN 30)",
        "group": "gps-ops",
        "lat": 12.497015973118724,
        "lon": -32.893897967306074,
        "alt_km": 20080.994142838746,
        "timestamp": "2025-12-23T09:49:07.341882+00:00",
        "meta_object_name": "GPS BIIF-5  (PRN 30)",
        "meta_object_id": "2014-008A",
        "meta_epoch": "2025-12-20T16:28:24.690432",
        "meta_mean_motion": 2.00548724,
        "meta_eccentricity": 0.00795742,
        "meta_inclination": 53.6246,
        "meta_ra_of_asc_node": 156.6308,
        "meta_arg_of_pericenter": 226.1122,
        "meta_mean_anomaly": 133.2164,
        "meta_ephemeris_type": 0,
        "meta_classification_type": "U",
        "meta_norad_cat_id": 39533,
        "meta_element_set_no": 999,
        "meta_rev_at_epoch": 8610,
        "meta_bstar": 0,
        "meta_mean_motion_dot": 6.5e-07,
        "meta_mean_motion_ddot": 0,
        "tle_line1": "1 39533U 14008A   25354.68639688  .00000065  00000+0  00000+0 0  9998",
        "tle_line2": "2 39533  53.6246 156.6308 0079574 226.1122 133.2164  2.00548724 86105"
      },
      "geometry": {
        "type": "Point",
        "coordinates": [
          -32.893897967306074,
          12.497015973118724
        ]
      }
    },
    {
      "type": "Feature",
      "properties": {
        "norad_id": 39741,
        "name": "GPS BIIF-6  (PRN 06)",
        "group": "gps-ops",
        "lat": -31.735899490208578,
        "lon": -45.749824608605294,
        "alt_km": 20081.74640660293,
        "timestamp": "2025-12-23T09:49:07.341893+00:00",
        "meta_object_name": "GPS BIIF-6  (PRN 06)",
        "meta_object_id": "2014-026A",
        "meta_epoch": "2025-12-21T23:12:34.799616",
        "meta_mean_motion": 2.00560759,
        "meta_eccentricity": 0.00394103,
        "meta_inclination": 56.58,
        "meta_ra_of_asc_node": 338.4177,
        "meta_arg_of_pericenter": 319.2097,
        "meta_mean_anomaly": 40.4995,
        "meta_ephemeris_type": 0,
        "meta_classification_type": "U",
        "meta_norad_cat_id": 39741,
        "meta_element_set_no": 999,
        "meta_rev_at_epoch": 8498,
        "meta_bstar": 0,
        "meta_mean_motion_dot": -6.8e-07,
        "meta_mean_motion_ddot": 0,
        "tle_line1": "1 39741U 14026A   25355.96706944 -.00000068  00000+0  00000+0 0  9995",
        "tle_line2": "2 39741  56.5800 338.4177 0039410 319.2097  40.4995  2.00560759 84985"
      },
      "geometry": {
        "type": "Point",
        "coordinates": [
          -45.749824608605294,
          -31.735899490208578
        ]
      }
    },
    {
      "type": "Feature",
      "properties": {
        "norad_id": 40105,
        "name": "GPS BIIF-7  (PRN 09)",
        "group": "gps-ops",
        "lat": -53.79354952626153,
        "lon": -13.194205287713807,
        "alt_km": 20251.89239934163,
        "timestamp": "2025-12-23T09:49:07.341905+00:00",
        "meta_object_name": "GPS BIIF-7  (PRN 09)",
        "meta_object_id": "2014-045A",
        "meta_epoch": "2025-12-22T01:17:45.580992",
        "meta_mean_motion": 2.00573157,
        "meta_eccentricity": 0.00324364,
        "meta_inclination": 55.2345,
        "meta_ra_of_asc_node": 95.5273,
        "meta_arg_of_pericenter": 120.1369,
        "meta_mean_anomaly": 240.1873,
        "meta_ephemeris_type": 0,
        "meta_classification_type": "U",
        "meta_norad_cat_id": 40105,
        "meta_element_set_no": 999,
        "meta_rev_at_epoch": 8252,
        "meta_bstar": 0,
        "meta_mean_motion_dot": -3e-08,
        "meta_mean_motion_ddot": 0,
        "tle_line1": "1 40105U 14045A   25356.05399978 -.00000003  00000+0  00000+0 0  9997",
        "tle_line2": "2 40105  55.2345  95.5273 0032436 120.1369 240.1873  2.00573157 82529"
      },
      "geometry": {
        "type": "Point",
        "coordinates": [
          -13.194205287713807,
          -53.79354952626153
        ]
      }
    },
    {
      "type": "Feature",
      "properties": {
        "norad_id": 40294,
        "name": "GPS BIIF-8  (PRN 03)",
        "group": "gps-ops",
        "lat": -11.445028956558508,
        "lon": 30.15633156279661,
        "alt_km": 20162.362832343097,
        "timestamp": "2025-12-23T09:49:07.341916+00:00",
        "meta_object_name": "GPS BIIF-8  (PRN 03)",
        "meta_object_id": "2014-068A",
        "meta_epoch": "2025-12-21T10:24:33.832224",
        "meta_mean_motion": 2.00565456,
        "meta_eccentricity": 0.00608151,
        "meta_inclination": 56.8641,
        "meta_ra_of_asc_node": 37.8098,
        "meta_arg_of_pericenter": 69.0115,
        "meta_mean_anomaly": 291.7086,
        "meta_ephemeris_type": 0,
        "meta_classification_type": "U",
        "meta_norad_cat_id": 40294,
        "meta_element_set_no": 999,
        "meta_rev_at_epoch": 8164,
        "meta_bstar": 0,
        "meta_mean_motion_dot": -5.2e-07,
        "meta_mean_motion_ddot": 0,
        "tle_line1": "1 40294U 14068A   25355.43372491 -.00000052  00000+0  00000+0 0  9997",
        "tle_line2": "2 40294  56.8641  37.8098 0060815  69.0115 291.7086  2.00565456 81643"
      },
      "geometry": {
        "type": "Point",
        "coordinates": [
          30.15633156279661,
          -11.445028956558508
        ]
      }
    },
    {
      "type": "Feature",
      "properties": {
        "norad_id": 40534,
        "name": "GPS BIIF-9  (PRN 26)",
        "group": "gps-ops",
        "lat": -49.81691960785598,
        "lon": 93.90735126963637,
        "alt_km": 20424.137281999017,
        "timestamp": "2025-12-23T09:49:07.341927+00:00",
        "meta_object_name": "GPS BIIF-9  (PRN 26)",
        "meta_object_id": "2015-013A",
        "meta_epoch": "2025-12-22T13:27:33.794784",
        "meta_mean_motion": 2.00561992,
        "meta_eccentricity": 0.01074276,
        "meta_inclination": 53.1964,
        "meta_ra_of_asc_node": 211.4834,
        "meta_arg_of_pericenter": 38.7225,
        "meta_mean_anomaly": 322.126,
        "meta_ephemeris_type": 0,
        "meta_classification_type": "U",
        "meta_norad_cat_id": 40534,
        "meta_element_set_no": 999,
        "meta_rev_at_epoch": 7828,
        "meta_bstar": 0,
        "meta_mean_motion_dot": 7.5e-07,
        "meta_mean_motion_ddot": 0,
        "tle_line1": "1 40534U 15013A   25356.56080781  .00000075  00000+0  00000+0 0  9992",
        "tle_line2": "2 40534  53.1964 211.4834 0107427  38.7225 322.1260  2.00561992 78282"
      },
      "geometry": {
        "type": "Point",
        "coordinates": [
          93.90735126963637,
          -49.81691960785598
        ]
      }
    }
  ]
}